[{"OBJECT_NAME":"STARLINK-30814","OBJECT_ID":"2023-166R","EPOCH":"2025-11-06T16:54:27.098784","MEAN_MOTION":15.30198447,"ECCENTRICITY":0.000115,"INCLINATION":53.1578,"RA_OF_ASC_NODE":70.5898,"ARG_OF_PERICENTER":83.3892,"MEAN_ANOMALY":276.724,"EPHEMERIS_TYPE":0,"CLASSIFICATION_TYPE":"U","NORAD_CAT_ID":58165,"ELEMENT_SET_NO":999,"REV_AT_EPOCH":11435,"BSTAR":5.605e-5,"MEAN_MOTION_DOT":1.301e-5,"MEAN_MOTION_DDOT":0},{"OBJECT_NAME":"STARLINK-30789","OBJECT_ID":"2023-166S","EPOCH":"2025-11-06T14:24:20.386944","MEAN_MOTION":15.30184106,"ECCENTRICITY":4.95e-5,"INCLINATION":53.1651,"RA_OF_ASC_NODE":71.3641,"ARG_OF_PERICENTER":309.9914,"MEAN_ANOMALY":50.1044,"EPHEMERIS_TYPE":0,"CLASSIFICATION_TYPE":"U","NORAD_CAT_ID":58166,"ELEMENT_SET_NO":999,"REV_AT_EPOCH":11433,"BSTAR":0.00021768,"MEAN_MOTION_DOT":6.09e-5,"MEAN_MOTION_DDOT":0},{"OBJECT_NAME":"STARLINK-30811","OBJECT_ID":"2023-166T","EPOCH":"2025-11-06T18:37:36.651360","MEAN_MOTION":15.30268794,"ECCENTRICITY":0.0001612,"INCLINATION":53.16,"RA_OF_ASC_NODE":70.3249,"ARG_OF_PERICENTER":66.1542,"MEAN_ANOMALY":293.9628,"EPHEMERIS_TYPE":0,"CLASSIFICATION_TYPE":"U","NORAD_CAT_ID":58167,"ELEMENT_SET_NO":999,"REV_AT_EPOCH":11421,"BSTAR":-0.00049867,"MEAN_MOTION_DOT":-0.00015131,"MEAN_MOTION_DDOT":0},{"OBJECT_NAME":"STARLINK-30812","OBJECT_ID":"2023-166U","EPOCH":"2025-11-06T18:33:03.602304","MEAN_MOTION":15.30199868,"ECCENTRICITY":0.000122,"INCLINATION":53.16,"RA_OF_ASC_NODE":70.3077,"ARG_OF_PERICENTER":86.6257,"MEAN_ANOMALY":273.4883,"EPHEMERIS_TYPE":0,"CLASSIFICATION_TYPE":"U","NORAD_CAT_ID":58168,"ELEMENT_SET_NO":999,"REV_AT_EPOCH":11421,"BSTAR":8.0499e-5,"MEAN_MOTION_DOT":2.026e-5,"MEAN_MOTION_DDOT":0},{"OBJECT_NAME":"STARLINK-30771","OBJECT_ID":"2023-166V","EPOCH":"2025-11-06T17:18:45.673344","MEAN_MOTION":15.30196893,"ECCENTRICITY":3.86e-5,"INCLINATION":53.1588,"RA_OF_ASC_NODE":70.6925,"ARG_OF_PERICENTER":137.5904,"MEAN_ANOMALY":222.5127,"EPHEMERIS_TYPE":0,"CLASSIFICATION_TYPE":"U","NORAD_CAT_ID":58169,"ELEMENT_SET_NO":999,"REV_AT_EPOCH":11435,"BSTAR":2.1098e-5,"MEAN_MOTION_DOT":2.66e-6,"MEAN_MOTION_DDOT":0},{"OBJECT_NAME":"STARLINK-30764","OBJECT_ID":"2023-166W","EPOCH":"2025-11-06T17:14:12.214752","MEAN_MOTION":15.30181221,"ECCENTRICITY":7.39e-5,"INCLINATION":53.1652,"RA_OF_ASC_NODE":70.6712,"ARG_OF_PERICENTER":106.4866,"MEAN_ANOMALY":253.6216,"EPHEMERIS_TYPE":0,"CLASSIFICATION_TYPE":"U","NORAD_CAT_ID":58170,"ELEMENT_SET_NO":999,"REV_AT_EPOCH":11435,"BSTAR":0.00013845,"MEAN_MOTION_DOT":3.741e-5,"MEAN_MOTION_DDOT":0},{"OBJECT_NAME":"STARLINK-30752","OBJECT_ID":"2023-166X","EPOCH":"2025-11-06T17:09:38.829600","MEAN_MOTION":15.30196188,"ECCENTRICITY":0.000149,"INCLINATION":53.1529,"RA_OF_ASC_NODE":70.6494,"ARG_OF_PERICENTER":89.5848,"MEAN_ANOMALY":270.5323,"EPHEMERIS_TYPE":0,"CLASSIFICATION_TYPE":"U","NORAD_CAT_ID":58171,"ELEMENT_SET_NO":999,"REV_AT_EPOCH":11435,"BSTAR":4.7064e-5,"MEAN_MOTION_DOT":1.035e-5,"MEAN_MOTION_DDOT":0},{"OBJECT_NAME":"STARLINK-30753","OBJECT_ID":"2023-167A","EPOCH":"2025-11-06T17:43:23.566944","MEAN_MOTION":15.02542879,"ECCENTRICITY":0.000146,"INCLINATION":43.004,"RA_OF_ASC_NODE":93.7327,"ARG_OF_PERICENTER":275.1721,"MEAN_ANOMALY":84.8954,"EPHEMERIS_TYPE":0,"CLASSIFICATION_TYPE":"U","NORAD_CAT_ID":58175,"ELEMENT_SET_NO":999,"REV_AT_EPOCH":11246,"BSTAR":8.6224e-5,"MEAN_MOTION_DOT":9.61e-6,"MEAN_MOTION_DDOT":0},{"OBJECT_NAME":"STARLINK-30824","OBJECT_ID":"2023-167B","EPOCH":"2025-11-06T17:41:48.314400","MEAN_MOTION":15.02534725,"ECCENTRICITY":0.0001332,"INCLINATION":43.0035,"RA_OF_ASC_NODE":93.7214,"ARG_OF_PERICENTER":270.6848,"MEAN_ANOMALY":89.3842,"EPHEMERIS_TYPE":0,"CLASSIFICATION_TYPE":"U","NORAD_CAT_ID":58176,"ELEMENT_SET_NO":999,"REV_AT_EPOCH":11246,"BSTAR":2.0112e-5,"MEAN_MOTION_DOT":6.8e-7,"MEAN_MOTION_DDOT":0},{"OBJECT_NAME":"STARLINK-30791","OBJECT_ID":"2023-167C","EPOCH":"2025-11-06T11:42:54.284256","MEAN_MOTION":15.02514445,"ECCENTRICITY":0.0001104,"INCLINATION":43.0035,"RA_OF_ASC_NODE":95.2777,"ARG_OF_PERICENTER":257.2563,"MEAN_ANOMALY":102.8156,"EPHEMERIS_TYPE":0,"CLASSIFICATION_TYPE":"U","NORAD_CAT_ID":58177,"ELEMENT_SET_NO":999,"REV_AT_EPOCH":11242,"BSTAR":7.9679e-5,"MEAN_MOTION_DOT":8.72e-6,"MEAN_MOTION_DDOT":0},{"OBJECT_NAME":"STARLINK-30810","OBJECT_ID":"2023-167D","EPOCH":"2025-11-06T17:32:22.909344","MEAN_MOTION":15.02533451,"ECCENTRICITY":0.0001517,"INCLINATION":43.0036,"RA_OF_ASC_NODE":94.519,"ARG_OF_PERICENTER":272.077,"MEAN_ANOMALY":87.9899,"EPHEMERIS_TYPE":0,"CLASSIFICATION_TYPE":"U","NORAD_CAT_ID":58178,"ELEMENT_SET_NO":999,"REV_AT_EPOCH":11245,"BSTAR":4.0606e-6,"MEAN_MOTION_DOT":-1.49e-6,"MEAN_MOTION_DDOT":0},{"OBJECT_NAME":"STARLINK-30819","OBJECT_ID":"2023-167E","EPOCH":"2025-11-06T17:27:34.640064","MEAN_MOTION":15.02541482,"ECCENTRICITY":0.0001242,"INCLINATION":43.003,"RA_OF_ASC_NODE":94.4916,"ARG_OF_PERICENTER":274.2394,"MEAN_ANOMALY":85.8306,"EPHEMERIS_TYPE":0,"CLASSIFICATION_TYPE":"U","NORAD_CAT_ID":58179,"ELEMENT_SET_NO":999,"REV_AT_EPOCH":11245,"BSTAR":7.7928e-5,"MEAN_MOTION_DOT":8.49e-6,"MEAN_MOTION_DDOT":0},{"OBJECT_NAME":"STARLINK-30806","OBJECT_ID":"2023-167F","EPOCH":"2025-11-06T18:26:33.356832","MEAN_MOTION":15.02536292,"ECCENTRICITY":0.0001283,"INCLINATION":43.004,"RA_OF_ASC_NODE":93.9357,"ARG_OF_PERICENTER":268.027,"MEAN_ANOMALY":92.0425,"EPHEMERIS_TYPE":0,"CLASSIFICATION_TYPE":"U","NORAD_CAT_ID":58180,"ELEMENT_SET_NO":999,"REV_AT_EPOCH":11246,"BSTAR":5.3573e-5,"MEAN_MOTION_DOT":5.2e-6,"MEAN_MOTION_DDOT":0},{"OBJECT_NAME":"STARLINK-30821","OBJECT_ID":"2023-167G","EPOCH":"2025-11-06T16:25:14.598336","MEAN_MOTION":15.02541247,"ECCENTRICITY":0.000136,"INCLINATION":43.0041,"RA_OF_ASC_NODE":94.1623,"ARG_OF_PERICENTER":270.5559,"MEAN_ANOMALY":89.5127,"EPHEMERIS_TYPE":0,"CLASSIFICATION_TYPE":"U","NORAD_CAT_ID":58181,"ELEMENT_SET_NO":999,"REV_AT_EPOCH":11245,"BSTAR":9.7713e-5,"MEAN_MOTION_DOT":1.117e-5,"MEAN_MOTION_DDOT":0},{"OBJECT_NAME":"STARLINK-30778","OBJECT_ID":"2023-167H","EPOCH":"2025-11-06T17:56:10.671072","MEAN_MOTION":15.025405,"ECCENTRICITY":0.000109,"INCLINATION":43.0017,"RA_OF_ASC_NODE":93.7805,"ARG_OF_PERICENTER":271.1145,"MEAN_ANOMALY":88.9572,"EPHEMERIS_TYPE":0,"CLASSIFICATION_TYPE":"U","NORAD_CAT_ID":58182,"ELEMENT_SET_NO":999,"REV_AT_EPOCH":11246,"BSTAR":7.7256e-5,"MEAN_MOTION_DOT":8.4e-6,"MEAN_MOTION_DDOT":0},{"OBJECT_NAME":"STARLINK-30809","OBJECT_ID":"2023-167J","EPOCH":"2025-11-06T17:17:59.714592","MEAN_MOTION":15.02534433,"ECCENTRICITY":0.0001229,"INCLINATION":43.0045,"RA_OF_ASC_NODE":94.4428,"ARG_OF_PERICENTER":269.8482,"MEAN_ANOMALY":90.2219,"EPHEMERIS_TYPE":0,"CLASSIFICATION_TYPE":"U","NORAD_CAT_ID":58183,"ELEMENT_SET_NO":999,"REV_AT_EPOCH":11245,"BSTAR":8.2314e-5,"MEAN_MOTION_DOT":9.08e-6,"MEAN_MOTION_DDOT":0},{"OBJECT_NAME":"STARLINK-30801","OBJECT_ID":"2023-167K","EPOCH":"2025-11-06T18:48:56.761920","MEAN_MOTION":15.02527638,"ECCENTRICITY":0.000141,"INCLINATION":43.0052,"RA_OF_ASC_NODE":94.0551,"ARG_OF_PERICENTER":271.8832,"MEAN_ANOMALY":88.1849,"EPHEMERIS_TYPE":0,"CLASSIFICATION_TYPE":"U","NORAD_CAT_ID":58184,"ELEMENT_SET_NO":999,"REV_AT_EPOCH":11246,"BSTAR":-4.5393e-5,"MEAN_MOTION_DOT":-8.17e-6,"MEAN_MOTION_DDOT":0},{"OBJECT_NAME":"STARLINK-30793","OBJECT_ID":"2023-167L","EPOCH":"2025-11-06T17:51:23.513760","MEAN_MOTION":15.02536225,"ECCENTRICITY":0.0001527,"INCLINATION":43.0042,"RA_OF_ASC_NODE":93.7567,"ARG_OF_PERICENTER":274.239,"MEAN_ANOMALY":85.8278,"EPHEMERIS_TYPE":0,"CLASSIFICATION_TYPE":"U","NORAD_CAT_ID":58185,"ELEMENT_SET_NO":999,"REV_AT_EPOCH":11246,"BSTAR":0.00010927,"MEAN_MOTION_DOT":1.273e-5,"MEAN_MOTION_DDOT":0},{"OBJECT_NAME":"STARLINK-30755","OBJECT_ID":"2023-167M","EPOCH":"2025-11-06T18:36:08.590752","MEAN_MOTION":15.02538359,"ECCENTRICITY":0.0001621,"INCLINATION":43.004,"RA_OF_ASC_NODE":93.9898,"ARG_OF_PERICENTER":267.7644,"MEAN_ANOMALY":92.3012,"EPHEMERIS_TYPE":0,"CLASSIFICATION_TYPE":"U","NORAD_CAT_ID":58186,"ELEMENT_SET_NO":999,"REV_AT_EPOCH":11246,"BSTAR":6.3725e-5,"MEAN_MOTION_DOT":6.57e-6,"MEAN_MOTION_DDOT":0},{"OBJECT_NAME":"STARLINK-30760","OBJECT_ID":"2023-167N","EPOCH":"2025-11-06T17:46:36.691680","MEAN_MOTION":15.0253185,"ECCENTRICITY":6.32e-5,"INCLINATION":43.0022,"RA_OF_ASC_NODE":93.7278,"ARG_OF_PERICENTER":246.3011,"MEAN_ANOMALY":113.7765,"EPHEMERIS_TYPE":0,"CLASSIFICATION_TYPE":"U","NORAD_CAT_ID":58187,"ELEMENT_SET_NO":999,"REV_AT_EPOCH":11246,"BSTAR":-9.0442e-5,"MEAN_MOTION_DOT":-1.425e-5,"MEAN_MOTION_DDOT":0},{"OBJECT_NAME":"STARLINK-30826","OBJECT_ID":"2023-167P","EPOCH":"2025-11-06T18:34:34.323168","MEAN_MOTION":15.02512162,"ECCENTRICITY":0.0001282,"INCLINATION":43.002,"RA_OF_ASC_NODE":93.981,"ARG_OF_PERICENTER":262.7219,"MEAN_ANOMALY":97.3477,"EPHEMERIS_TYPE":0,"CLASSIFICATION_TYPE":"U","NORAD_CAT_ID":58188,"ELEMENT_SET_NO":999,"REV_AT_EPOCH":11246,"BSTAR":0.00055508,"MEAN_MOTION_DOT":7.298e-5,"MEAN_MOTION_DDOT":0},{"OBJECT_NAME":"STARLINK-30796","OBJECT_ID":"2023-167Q","EPOCH":"2025-11-06T18:39:20.365920","MEAN_MOTION":15.02533143,"ECCENTRICITY":0.0001359,"INCLINATION":43.0058,"RA_OF_ASC_NODE":94.0066,"ARG_OF_PERICENTER":270.9172,"MEAN_ANOMALY":89.1515,"EPHEMERIS_TYPE":0,"CLASSIFICATION_TYPE":"U","NORAD_CAT_ID":58189,"ELEMENT_SET_NO":999,"REV_AT_EPOCH":11246,"BSTAR":3.124e-5,"MEAN_MOTION_DOT":2.18e-6,"MEAN_MOTION_DDOT":0},{"OBJECT_NAME":"STARLINK-30820","OBJECT_ID":"2023-167R","EPOCH":"2025-11-06T18:44:08.115936","MEAN_MOTION":15.02546138,"ECCENTRICITY":0.0001643,"INCLINATION":43.0042,"RA_OF_ASC_NODE":94.0305,"ARG_OF_PERICENTER":265.9167,"MEAN_ANOMALY":94.1488,"EPHEMERIS_TYPE":0,"CLASSIFICATION_TYPE":"U","NORAD_CAT_ID":58190,"ELEMENT_SET_NO":999,"REV_AT_EPOCH":11246,"BSTAR":0.00015742,"MEAN_MOTION_DOT":1.924e-5,"MEAN_MOTION_DDOT":0}]
